start=new Date('2021-09-03T00:00:00.000Z').valueOf();
sats=[{"ELEMENT_SET_NO":"999","CENTER_NAME":"EARTH","DECAY_DATE":null,"EPHEMERIS_TYPE":"0","EPOCH":"2021-09-02T14:18:05.772096","MEAN_ANOMALY":"264.6434","TIME_SYSTEM":"UTC","PERIAPSIS":"545.814","APOAPSIS":"548.635","CLASSIFICATION_TYPE":"U","SEMIMAJOR_AXIS":"6925.360","LAUNCH_DATE":"2021-03-14","ECCENTRICITY":"0.00020370","GP_ID":"183961335","REV_AT_EPOCH":"2777","RCS_SIZE":"LARGE","OBJECT_ID":"2021-021C","PERIOD":"95.592","MEAN_MOTION":"15.06396408","MEAN_MOTION_DOT":"0.00001090","OBJECT_NAME":"STARLINK-2291","COUNTRY_CODE":"US","RA_OF_ASC_NODE":"104.6771","FILE":"3107538","BSTAR":"0.00009207100000","ARG_OF_PERICENTER":"95.4787","TLE_LINE2":"2 47862  53.0557 104.6771 0002037  95.4787 264.6434 15.06396408 27776","OBJECT_TYPE":"PAYLOAD","INCLINATION":"53.0557","REF_FRAME":"TEME","MEAN_MOTION_DDOT":"0.0000000000000","SITE":"AFETR","NORAD_CAT_ID":"47862","TLE_LINE1":"1 47862U 21021C   21245.59590014  .00001090  00000-0  92071-4 0  9993","MEAN_ELEMENT_THEORY":"SGP4"},{"LAUNCH_DATE":"2021-03-14","ECCENTRICITY":"0.00019900","REV_AT_EPOCH":"2767","GP_ID":"183989299","RCS_SIZE":"LARGE","OBJECT_ID":"2021-021D","TIME_SYSTEM":"UTC","APOAPSIS":"548.606","PERIAPSIS":"545.850","SEMIMAJOR_AXIS":"6925.363","CLASSIFICATION_TYPE":"U","CENTER_NAME":"EARTH","ELEMENT_SET_NO":"999","MEAN_ANOMALY":"267.4740","EPOCH":"2021-09-02T19:40:33.526272","EPHEMERIS_TYPE":"0","DECAY_DATE":null,"SITE":"AFETR","MEAN_ELEMENT_THEORY":"SGP4","NORAD_CAT_ID":"47863","TLE_LINE1":"1 47863U 21021D   21245.81983248  .00002910  00000-0  21418-3 0  9992","TLE_LINE2":"2 47863  53.0549 113.6774 0001990  92.6477 267.4740 15.06395262 27670","INCLINATION":"53.0549","OBJECT_TYPE":"PAYLOAD","BSTAR":"0.00021418000000","FILE":"3107724","ARG_OF_PERICENTER":"92.6477","MEAN_MOTION_DDOT":"0.0000000000000","REF_FRAME":"TEME","OBJECT_NAME":"STARLINK-2293","COUNTRY_CODE":"US","RA_OF_ASC_NODE":"113.6774","MEAN_MOTION_DOT":"0.00002910","PERIOD":"95.592","MEAN_MOTION":"15.06395262"},{"EPHEMERIS_TYPE":"0","DECAY_DATE":null,"MEAN_ANOMALY":"259.7451","EPOCH":"2021-09-02T14:16:44.423040","ELEMENT_SET_NO":"999","CENTER_NAME":"EARTH","TIME_SYSTEM":"UTC","APOAPSIS":"548.660","PERIAPSIS":"545.802","CLASSIFICATION_TYPE":"U","SEMIMAJOR_AXIS":"6925.366","ECCENTRICITY":"0.00020630","OBJECT_ID":"2021-021E","GP_ID":"183960830","RCS_SIZE":"LARGE","REV_AT_EPOCH":"2775","LAUNCH_DATE":"2021-03-14","PERIOD":"95.593","MEAN_MOTION":"15.06394252","MEAN_MOTION_DOT":"0.00001018","RA_OF_ASC_NODE":"104.6820","OBJECT_NAME":"STARLINK-2304","COUNTRY_CODE":"US","MEAN_MOTION_DDOT":"0.0000000000000","REF_FRAME":"TEME","ARG_OF_PERICENTER":"100.3771","FILE":"3107538","BSTAR":"0.00008722800000","INCLINATION":"53.0559","TLE_LINE2":"2 47864  53.0559 104.6820 0002063 100.3771 259.7451 15.06394252 27750","OBJECT_TYPE":"PAYLOAD","NORAD_CAT_ID":"47864","TLE_LINE1":"1 47864U 21021E   21245.59495860  .00001018  00000-0  87228-4 0  9996","MEAN_ELEMENT_THEORY":"SGP4","SITE":"AFETR"},{"TIME_SYSTEM":"UTC","APOAPSIS":"548.624","PERIAPSIS":"545.848","SEMIMAJOR_AXIS":"6925.371","CLASSIFICATION_TYPE":"U","ELEMENT_SET_NO":"999","CENTER_NAME":"EARTH","EPHEMERIS_TYPE":"0","DECAY_DATE":null,"MEAN_ANOMALY":"270.9623","EPOCH":"2021-09-02T19:03:24.399360","LAUNCH_DATE":"2021-03-14","ECCENTRICITY":"0.00020040","GP_ID":"183988298","RCS_SIZE":"LARGE","OBJECT_ID":"2021-021F","REV_AT_EPOCH":"2777","OBJECT_NAME":"STARLINK-2310","COUNTRY_CODE":"US","RA_OF_ASC_NODE":"113.7821","PERIOD":"95.593","MEAN_MOTION":"15.06392689","MEAN_MOTION_DOT":"0.00001517","SITE":"AFETR","NORAD_CAT_ID":"47865","TLE_LINE1":"1 47865U 21021F   21245.79403240  .00001517  00000-0  12072-3 0  9998","MEAN_ELEMENT_THEORY":"SGP4","FILE":"3107724","ARG_OF_PERICENTER":"89.1595","BSTAR":"0.00012072000000","TLE_LINE2":"2 47865  53.0546 113.7821 0002004  89.1595 270.9623 15.06392689 27772","INCLINATION":"53.0546","OBJECT_TYPE":"PAYLOAD","MEAN_MOTION_DDOT":"0.0000000000000","REF_FRAME":"TEME"},{"RCS_SIZE":"MEDIUM","GP_ID":"183961832","OBJECT_ID":"2021-021G","REV_AT_EPOCH":"2775","ECCENTRICITY":"0.00017520","LAUNCH_DATE":"2021-03-14","PERIAPSIS":"546.028","APOAPSIS":"548.455","SEMIMAJOR_AXIS":"6925.377","CLASSIFICATION_TYPE":"U","TIME_SYSTEM":"UTC","EPOCH":"2021-09-02T07:59:56.162688","MEAN_ANOMALY":"265.4477","EPHEMERIS_TYPE":"0","DECAY_DATE":null,"CENTER_NAME":"EARTH","ELEMENT_SET_NO":"999","MEAN_ELEMENT_THEORY":"SGP4","TLE_LINE1":"1 47866U 21021G   21245.33328892  .00001969  00000-0  15112-3 0  9997","NORAD_CAT_ID":"47866","SITE":"AFETR","MEAN_MOTION_DDOT":"0.0000000000000","REF_FRAME":"TEME","OBJECT_TYPE":"PAYLOAD","TLE_LINE2":"2 47866  53.0554 115.8538 0001752  94.6712 265.4477 15.06390819 27758","INCLINATION":"53.0554","BSTAR":"0.00015112000000","FILE":"3107538","ARG_OF_PERICENTER":"94.6712","RA_OF_ASC_NODE":"115.8538","COUNTRY_CODE":"US","OBJECT_NAME":"STARLINK-2320","MEAN_MOTION_DOT":"0.00001969","PERIOD":"95.593","MEAN_MOTION":"15.06390819"},{"MEAN_MOTION_DOT":"0.00001023","PERIOD":"95.593","MEAN_MOTION":"15.06381345","OBJECT_NAME":"STARLINK-2321","COUNTRY_CODE":"US","RA_OF_ASC_NODE":"104.6914","TLE_LINE2":"2 47867  53.0549 104.6914 0002121 100.9448 259.1780 15.06381345 27734","INCLINATION":"53.0549","OBJECT_TYPE":"PAYLOAD","BSTAR":"0.00008762700000","FILE":"3107538","ARG_OF_PERICENTER":"100.9448","MEAN_MOTION_DDOT":"0.0000000000000","REF_FRAME":"TEME","SITE":"AFETR","MEAN_ELEMENT_THEORY":"SGP4","NORAD_CAT_ID":"47867","TLE_LINE1":"1 47867U 21021H   21245.59224744  .00001023  00000-0  87627-4 0  9999","CENTER_NAME":"EARTH","ELEMENT_SET_NO":"999","EPOCH":"2021-09-02T14:12:50.178816","MEAN_ANOMALY":"259.1780","EPHEMERIS_TYPE":"0","DECAY_DATE":null,"TIME_SYSTEM":"UTC","PERIAPSIS":"545.802","SEMIMAJOR_AXIS":"6925.406","APOAPSIS":"548.740","CLASSIFICATION_TYPE":"U","LAUNCH_DATE":"2021-03-14","ECCENTRICITY":"0.00021210","OBJECT_ID":"2021-021H","GP_ID":"183961586","RCS_SIZE":"MEDIUM","REV_AT_EPOCH":"2773"},{"LAUNCH_DATE":"2021-03-14","ECCENTRICITY":"0.00043850","GP_ID":"183989550","RCS_SIZE":"LARGE","OBJECT_ID":"2021-021J","REV_AT_EPOCH":"2812","TIME_SYSTEM":"UTC","PERIAPSIS":"346.814","APOAPSIS":"352.714","CLASSIFICATION_TYPE":"U","SEMIMAJOR_AXIS":"6727.899","ELEMENT_SET_NO":"999","CENTER_NAME":"EARTH","EPHEMERIS_TYPE":"0","DECAY_DATE":null,"EPOCH":"2021-09-02T19:00:32.681088","MEAN_ANOMALY":"3.1333","SITE":"AFETR","NORAD_CAT_ID":"47868","TLE_LINE1":"1 47868U 21021J   21245.79204492  .00002680  00000-0  23531-4 0  9994","MEAN_ELEMENT_THEORY":"SGP4","FILE":"3107724","BSTAR":"0.00002353100000","ARG_OF_PERICENTER":"356.9657","OBJECT_TYPE":"PAYLOAD","TLE_LINE2":"2 47868  53.0469  81.5062 0004385 356.9657   3.1333 15.73198658 28124","INCLINATION":"53.0469","REF_FRAME":"TEME","MEAN_MOTION_DDOT":"0.0000000000000","OBJECT_NAME":"STARLINK-2323","COUNTRY_CODE":"US","RA_OF_ASC_NODE":"81.5062","PERIOD":"91.533","MEAN_MOTION":"15.73198658","MEAN_MOTION_DOT":"0.00002680"},{"MEAN_MOTION":"15.06387874","PERIOD":"95.593","MEAN_MOTION_DOT":"-0.00001255","RA_OF_ASC_NODE":"103.8173","OBJECT_NAME":"STARLINK-2324","COUNTRY_CODE":"US","REF_FRAME":"TEME","MEAN_MOTION_DDOT":"0.0000000000000","FILE":"3107724","ARG_OF_PERICENTER":"97.7133","BSTAR":"-0.00006534900000","INCLINATION":"53.0557","TLE_LINE2":"2 47869  53.0557 103.8173 0002081  97.7133 262.4093 15.06387874 27919","OBJECT_TYPE":"PAYLOAD","NORAD_CAT_ID":"47869","TLE_LINE1":"1 47869U 21021K   21245.78757307 -.00001255  00000-0 -65349-4 0  9994","MEAN_ELEMENT_THEORY":"SGP4","SITE":"AFETR","DECAY_DATE":null,"EPHEMERIS_TYPE":"0","MEAN_ANOMALY":"262.4093","EPOCH":"2021-09-02T18:54:06.313248","ELEMENT_SET_NO":"999","CENTER_NAME":"EARTH","TIME_SYSTEM":"UTC","CLASSIFICATION_TYPE":"U","PERIAPSIS":"545.810","APOAPSIS":"548.692","SEMIMAJOR_AXIS":"6925.386","ECCENTRICITY":"0.00020810","REV_AT_EPOCH":"2791","GP_ID":"183987798","RCS_SIZE":"LARGE","OBJECT_ID":"2021-021K","LAUNCH_DATE":"2021-03-14"},{"EPHEMERIS_TYPE":"0","DECAY_DATE":null,"MEAN_ANOMALY":"296.2768","EPOCH":"2021-09-02T17:32:28.225536","ELEMENT_SET_NO":"999","CENTER_NAME":"EARTH","TIME_SYSTEM":"UTC","SEMIMAJOR_AXIS":"6925.368","PERIAPSIS":"545.753","APOAPSIS":"548.712","CLASSIFICATION_TYPE":"U","ECCENTRICITY":"0.00021360","RCS_SIZE":"LARGE","GP_ID":"183988048","REV_AT_EPOCH":"2734","OBJECT_ID":"2021-021L","LAUNCH_DATE":"2021-03-14","MEAN_MOTION":"15.06393794","PERIOD":"95.593","MEAN_MOTION_DOT":"0.00000938","RA_OF_ASC_NODE":"129.0724","OBJECT_NAME":"STARLINK-2326","COUNTRY_CODE":"US","MEAN_MOTION_DDOT":"0.0000000000000","REF_FRAME":"TEME","FILE":"3107724","ARG_OF_PERICENTER":"63.8441","BSTAR":"0.00008189900000","TLE_LINE2":"2 47870  53.0562 129.0724 0002136  63.8441 296.2768 15.06393794 27345","OBJECT_TYPE":"PAYLOAD","INCLINATION":"53.0562","NORAD_CAT_ID":"47870","TLE_LINE1":"1 47870U 21021L   21245.73088224  .00000938  00000-0  81899-4 0  9999","MEAN_ELEMENT_THEORY":"SGP4","SITE":"AFETR"},{"TIME_SYSTEM":"UTC","PERIAPSIS":"545.677","APOAPSIS":"548.768","CLASSIFICATION_TYPE":"U","SEMIMAJOR_AXIS":"6925.358","ELEMENT_SET_NO":"999","CENTER_NAME":"EARTH","DECAY_DATE":null,"EPHEMERIS_TYPE":"0","MEAN_ANOMALY":"268.4271","EPOCH":"2021-09-02T18:48:47.603520","LAUNCH_DATE":"2021-03-14","ECCENTRICITY":"0.00022320","GP_ID":"183989300","RCS_SIZE":"LARGE","REV_AT_EPOCH":"2780","OBJECT_ID":"2021-021M","OBJECT_NAME":"STARLINK-2327","COUNTRY_CODE":"US","RA_OF_ASC_NODE":"103.8338","PERIOD":"95.592","MEAN_MOTION":"15.06397082","MEAN_MOTION_DOT":"0.00000649","SITE":"AFETR","NORAD_CAT_ID":"47871","TLE_LINE1":"1 47871U 21021M   21245.78388430  .00000649  00000-0  62482-4 0  9993","MEAN_ELEMENT_THEORY":"SGP4","FILE":"3107724","ARG_OF_PERICENTER":"91.6974","BSTAR":"0.00006248200000","OBJECT_TYPE":"PAYLOAD","TLE_LINE2":"2 47871  53.0562 103.8338 0002232  91.6974 268.4271 15.06397082 27809","INCLINATION":"53.0562","MEAN_MOTION_DDOT":"0.0000000000000","REF_FRAME":"TEME"}];
